[Satellite]
VERSION=1.1
NAME=SL-3 R/B
NICKNAME=SL-3 R/B
TLE1=1 10114U 77057B   19316.91162384  .00000262  00000-0  16315-4 0  9997
TLE2=2 10114  97.2781 109.0872 0015209 124.4132 235.8543 15.17353212316576
STATUS=0
